[
{"name":"(2015 PK)","year":"2015","neo_reference_id":"3724986","url":"http://ssd.jpl.nasa.gov/sbdb.cgi?sstr=3724986","api_link":"https://api.nasa.gov/neo/rest/v1/neo/3724986?api_key=CGuQueDNtud5hWODnVj9El7kwfizD8Ql2XqEz3s5","closest_approach":"2015-08-06","potentially_hazardous":false,"absolute_magnitude_h":28.1,"estimated_diameter":0.0103167431,"kilometers_per_second":16.3238433706,"miss_distance":0.2066595703,"orbital_data":[{"orbit_id":"3","orbit_determination_date":"2015-09-02 13:47:20","orbit_uncertainty":"7","minimum_orbit_intersection":".000200107","jupiter_tisserand_invariant":"3.511","epoch_osculation":"2457600.5","eccentricity":".616042574241605","semi_major_axis":"2.05754317420855","inclination":"7.659853138570845","ascending_node_longitude":"133.2481588712196","orbital_period":"1078.00769837506","perihelion_distance":".7900089805558715","perihelion_argument":"114.7151439036073","aphelion_distance":"3.325077367861228","perihelion_time":"2457197.047963553475","mean_anomaly":"134.7325564925756","mean_motion":".3339493776738772","equinox":"J2000"}]},
{"name":"(2015 LF)","year":"2015","neo_reference_id":"3720916","url":"http://ssd.jpl.nasa.gov/sbdb.cgi?sstr=3720916","api_link":"https://api.nasa.gov/neo/rest/v1/neo/3720916?api_key=CGuQueDNtud5hWODnVj9El7kwfizD8Ql2XqEz3s5","closest_approach":"2015-06-08","potentially_hazardous":false,"absolute_magnitude_h":26.6,"estimated_diameter":0.0205846088,"kilometers_per_second":16.7587845813,"miss_distance":0.5115861893,"orbital_data":[{"orbit_id":"6","orbit_determination_date":"2015-09-02 13:37:16","orbit_uncertainty":"6","minimum_orbit_intersection":".000717955","jupiter_tisserand_invariant":"3.176","epoch_osculation":"2457600.5","eccentricity":".6652013450953661","semi_major_axis":"2.393387232926675","inclination":"8.450257131445937","ascending_node_longitude":"77.30096559736256","orbital_period":"1352.439610343034","perihelion_distance":".8013028262497743","perihelion_argument":"242.0644273046482","aphelion_distance":"3.985471639603575","perihelion_time":"2457223.609306474641","mean_anomaly":"100.3228895630431","mean_motion":".2661856376039513","equinox":"J2000"}]},
{"name":"(2015 KW121)","year":"2015","neo_reference_id":"3720360","url":"http://ssd.jpl.nasa.gov/sbdb.cgi?sstr=3720360","api_link":"https://api.nasa.gov/neo/rest/v1/neo/3720360?api_key=CGuQueDNtud5hWODnVj9El7kwfizD8Ql2XqEz3s5","closest_approach":"2015-05-23","potentially_hazardous":false,"absolute_magnitude_h":26.1,"estimated_diameter":0.025914487049999997,"kilometers_per_second":21.0746483395,"miss_distance":0.743371129,"orbital_data":[{"orbit_id":"4","orbit_determination_date":"2015-06-04 15:24:46","orbit_uncertainty":"7","minimum_orbit_intersection":".00114812","jupiter_tisserand_invariant":"5.200","epoch_osculation":"2457600.5","eccentricity":".5216566261635371","semi_major_axis":"1.158653152668362","inclination":"28.30714571997552","ascending_node_longitude":"242.0691210685234","orbital_period":"455.5421827261918","perihelion_distance":".5542340581536386","perihelion_argument":"251.4772459252459","aphelion_distance":"1.763072247183086","perihelion_time":"2457562.470331021443","mean_anomaly":"30.0535962451349","mean_motion":".7902671007228799","equinox":"J2000"}]},
{"name":"(2015 JF1)","year":"2015","neo_reference_id":"3719184","url":"http://ssd.jpl.nasa.gov/sbdb.cgi?sstr=3719184","api_link":"https://api.nasa.gov/neo/rest/v1/neo/3719184?api_key=CGuQueDNtud5hWODnVj9El7kwfizD8Ql2XqEz3s5","closest_approach":"2015-05-15","potentially_hazardous":false,"absolute_magnitude_h":28.1,"estimated_diameter":0.0103167431,"kilometers_per_second":13.7816862274,"miss_distance":0.8082672954,"orbital_data":[{"orbit_id":"2","orbit_determination_date":"2015-06-04 15:19:52","orbit_uncertainty":"7","minimum_orbit_intersection":".00138727","jupiter_tisserand_invariant":"3.773","epoch_osculation":"2457600.5","eccentricity":".5561489902698672","semi_major_axis":"1.874360468057514","inclination":"2.645858619535853","ascending_node_longitude":"232.4359309151041","orbital_period":"937.2988861080407","perihelion_distance":".8319367863455719","perihelion_argument":"61.5053339860363","aphelion_distance":"2.916784149769456","perihelion_time":"2457200.259022356825","mean_anomaly":"153.7255128402387","mean_motion":".3840823939254137","equinox":"J2000"}]},
{"name":"(2015 GL13)","year":"2015","neo_reference_id":"3715741","url":"http://ssd.jpl.nasa.gov/sbdb.cgi?sstr=3715741","api_link":"https://api.nasa.gov/neo/rest/v1/neo/3715741?api_key=CGuQueDNtud5hWODnVj9El7kwfizD8Ql2XqEz3s5","closest_approach":"2015-04-16","potentially_hazardous":false,"absolute_magnitude_h":28.8,"estimated_diameter":0.0074738197,"kilometers_per_second":13.9628360223,"miss_distance":0.4826398194,"orbital_data":[{"orbit_id":"4","orbit_determination_date":"2015-06-04 15:08:30","orbit_uncertainty":"7","minimum_orbit_intersection":".000181455","jupiter_tisserand_invariant":"3.360","epoch_osculation":"2457600.5","eccentricity":".6124619241132083","semi_major_axis":"2.23515471061209","inclination":"5.138788807947122","ascending_node_longitude":"25.87951105501191","orbital_period":"1220.561903301212","perihelion_distance":".8662075558599079","perihelion_argument":"230.1843902795152","aphelion_distance":"3.604101865364271","perihelion_time":"2457164.694302075168","mean_anomaly":"128.5392005342821","mean_motion":".2949461219675301","equinox":"J2000"}]},
{"name":"(2015 HD1)","year":"2015","neo_reference_id":"3716436","url":"http://ssd.jpl.nasa.gov/sbdb.cgi?sstr=3716436","api_link":"https://api.nasa.gov/neo/rest/v1/neo/3716436?api_key=CGuQueDNtud5hWODnVj9El7kwfizD8Ql2XqEz3s5","closest_approach":"2015-04-21","potentially_hazardous":false,"absolute_magnitude_h":27.4,"estimated_diameter":0.01424106985,"kilometers_per_second":15.9658616415,"miss_distance":0.1536960453,"orbital_data":[{"orbit_id":"7","orbit_determination_date":"2015-06-04 15:11:30","orbit_uncertainty":"6","minimum_orbit_intersection":".000657435","jupiter_tisserand_invariant":"3.267","epoch_osculation":"2457600.5","eccentricity":".6450353966722134","semi_major_axis":"2.308576702479705","inclination":"5.340115187694654","ascending_node_longitude":"210.9045688085812","orbital_period":"1281.193981055844","perihelion_distance":".819463013447478","perihelion_argument":"57.71353699732349","aphelion_distance":"3.797690391511931","perihelion_time":"2457173.096087765690","mean_anomaly":"120.0953256723464","mean_motion":".2809878951377219","equinox":"J2000"}]},
{"name":"(2015 HG182)","year":"2015","neo_reference_id":"3720856","url":"http://ssd.jpl.nasa.gov/sbdb.cgi?sstr=3720856","api_link":"https://api.nasa.gov/neo/rest/v1/neo/3720856?api_key=CGuQueDNtud5hWODnVj9El7kwfizD8Ql2XqEz3s5","closest_approach":"2015-04-14","potentially_hazardous":false,"absolute_magnitude_h":28.9,"estimated_diameter":0.0071374424,"kilometers_per_second":17.8639256157,"miss_distance":0.8564968705,"orbital_data":[{"orbit_id":"2","orbit_determination_date":"2015-07-06 11:21:05","orbit_uncertainty":"7","minimum_orbit_intersection":".00130082","jupiter_tisserand_invariant":"4.270","epoch_osculation":"2457600.5","eccentricity":".6047628291077417","semi_major_axis":"1.526489056395366","inclination":"2.747884544115091","ascending_node_longitude":"202.8605402551443","orbital_period":"688.8726929366397","perihelion_distance":".6033252160476973","perihelion_argument":"268.2328196202666","aphelion_distance":"2.449652896743034","perihelion_time":"2457764.639081414949","mean_anomaly":"274.2220762772829","mean_motion":".5225929314534632","equinox":"J2000"}]},
{"name":"(2015 GU)","year":"2015","neo_reference_id":"3715468","url":"http://ssd.jpl.nasa.gov/sbdb.cgi?sstr=3715468","api_link":"https://api.nasa.gov/neo/rest/v1/neo/3715468?api_key=CGuQueDNtud5hWODnVj9El7kwfizD8Ql2XqEz3s5","closest_approach":"2015-04-12","potentially_hazardous":false,"absolute_magnitude_h":28.4,"estimated_diameter":0.008985507600000001,"kilometers_per_second":11.6578068733,"miss_distance":0.2874008119,"orbital_data":[{"orbit_id":"4","orbit_determination_date":"2015-06-04 15:07:57","orbit_uncertainty":"5","minimum_orbit_intersection":".00019095","jupiter_tisserand_invariant":"3.706","epoch_osculation":"2457600.5","eccentricity":".5356647694560418","semi_major_axis":"1.946139396801658","inclination":"2.420650767509505","ascending_node_longitude":"21.41492006293468","orbital_period":"991.6521172811329","perihelion_distance":".9036610854845776","perihelion_argument":"224.4849753688595","aphelion_distance":"2.988617708118738","perihelion_time":"2457158.082119311176","mean_anomaly":"160.6112005131973","mean_motion":".36303053634074","equinox":"J2000"}]},
{"name":"(2015 FM118)","year":"2015","neo_reference_id":"3714465","url":"http://ssd.jpl.nasa.gov/sbdb.cgi?sstr=3714465","api_link":"https://api.nasa.gov/neo/rest/v1/neo/3714465?api_key=CGuQueDNtud5hWODnVj9El7kwfizD8Ql2XqEz3s5","closest_approach":"2015-03-28","potentially_hazardous":false,"absolute_magnitude_h":28.7,"estimated_diameter":0.007826050000000001,"kilometers_per_second":8.8292151891,"miss_distance":0.9243279099,"orbital_data":[{"orbit_id":"3","orbit_determination_date":"2015-04-07 15:55:55","orbit_uncertainty":"6","minimum_orbit_intersection":".000933631","jupiter_tisserand_invariant":"3.644","epoch_osculation":"2457600.5","eccentricity":".5201970199353189","semi_major_axis":"2.015546223821833","inclination":"1.467310474881873","ascending_node_longitude":"185.006898152412","orbital_period":"1045.171528741516","perihelion_distance":".96706508464783","perihelion_argument":"27.09415826613204","aphelion_distance":"3.064027362995835","perihelion_time":"2457129.770427308336","mean_anomaly":"162.1385978367089","mean_motion":".3444410702934794","equinox":"J2000"}]}  
]
